start=new Date('2022-11-03T00:00:00.000Z').valueOf();
sats=[{"PERIAPSIS":"545.769","RCS_SIZE":"LARGE","MEAN_ELEMENT_THEORY":"SGP4","EPHEMERIS_TYPE":"0","NORAD_CAT_ID":"48146","OBJECT_NAME":"STARLINK-2489","INCLINATION":"53.0537","MEAN_MOTION_DDOT":"0.0000000000000","CLASSIFICATION_TYPE":"U","CENTER_NAME":"EARTH","REF_FRAME":"TEME","COUNTRY_CODE":"US","APOAPSIS":"548.761","TLE_LINE2":"2 48146  53.0537 262.2647 0002160  36.2833 323.8302 15.06383119 88072","ARG_OF_PERICENTER":"36.2833","LAUNCH_DATE":"2021-04-07","TIME_SYSTEM":"UTC","OBJECT_ID":"2021-027BG","MEAN_ANOMALY":"323.8302","EPOCH":"2022-11-02T14:33:32.333472","SEMIMAJOR_AXIS":"6925.400","OBJECT_TYPE":"PAYLOAD","MEAN_MOTION":"15.06383119","PERIOD":"95.593","DECAY_DATE":null,"SITE":"AFETR","TLE_LINE1":"1 48146U 21027BG  22306.60662423  .00000561  00000-0  56608-4 0  9998","ECCENTRICITY":"0.00021600","BSTAR":"0.00005660800000","GP_ID":"216789515","FILE":"3643025","REV_AT_EPOCH":"8807","ELEMENT_SET_NO":"999","RA_OF_ASC_NODE":"262.2647","MEAN_MOTION_DOT":"0.00000561"},{"MEAN_ELEMENT_THEORY":"SGP4","EPHEMERIS_TYPE":"0","PERIAPSIS":"545.588","RCS_SIZE":"MEDIUM","OBJECT_NAME":"STARLINK-2490","NORAD_CAT_ID":"48147","INCLINATION":"53.0536","MEAN_MOTION_DDOT":"0.0000000000000","CLASSIFICATION_TYPE":"U","CENTER_NAME":"EARTH","REF_FRAME":"TEME","COUNTRY_CODE":"US","APOAPSIS":"548.977","LAUNCH_DATE":"2021-04-07","TIME_SYSTEM":"UTC","ARG_OF_PERICENTER":"34.3607","TLE_LINE2":"2 48147  53.0536 266.0798 0002447  34.3607 325.7540 15.06377494 88048","EPOCH":"2022-11-02T20:52:23.390688","OBJECT_ID":"2021-027BH","MEAN_ANOMALY":"325.7540","OBJECT_TYPE":"PAYLOAD","SEMIMAJOR_AXIS":"6925.418","MEAN_MOTION":"15.06377494","PERIOD":"95.594","DECAY_DATE":null,"TLE_LINE1":"1 48147U 21027BH  22306.86971517 -.00002267  00000-0 -13341-3 0  9997","BSTAR":"-0.00013341000000","ECCENTRICITY":"0.00024470","SITE":"AFETR","GP_ID":"216788764","FILE":"3643025","ELEMENT_SET_NO":"999","REV_AT_EPOCH":"8804","RA_OF_ASC_NODE":"266.0798","MEAN_MOTION_DOT":"-0.00002267"},{"MEAN_ELEMENT_THEORY":"SGP4","EPHEMERIS_TYPE":"0","PERIAPSIS":"545.778","RCS_SIZE":"LARGE","OBJECT_NAME":"STARLINK-2491","NORAD_CAT_ID":"48148","MEAN_MOTION_DDOT":"0.0000000000000","INCLINATION":"53.0534","CLASSIFICATION_TYPE":"U","CENTER_NAME":"EARTH","REF_FRAME":"TEME","COUNTRY_CODE":"US","APOAPSIS":"548.691","TIME_SYSTEM":"UTC","LAUNCH_DATE":"2021-04-07","TLE_LINE2":"2 48148  53.0534 262.3936 0002103  44.3630 315.7527 15.06393224 88050","ARG_OF_PERICENTER":"44.3630","EPOCH":"2022-11-02T13:45:45.398304","OBJECT_ID":"2021-027BJ","MEAN_ANOMALY":"315.7527","OBJECT_TYPE":"PAYLOAD","SEMIMAJOR_AXIS":"6925.369","MEAN_MOTION":"15.06393224","PERIOD":"95.593","DECAY_DATE":null,"TLE_LINE1":"1 48148U 21027BJ  22306.57344211 -.00000982  00000-0 -47012-4 0  9996","ECCENTRICITY":"0.00021030","BSTAR":"-0.00004701200000","SITE":"AFETR","GP_ID":"216789012","FILE":"3643025","ELEMENT_SET_NO":"999","REV_AT_EPOCH":"8805","RA_OF_ASC_NODE":"262.3936","MEAN_MOTION_DOT":"-0.00000982"},{"GP_ID":"216789265","BSTAR":"-0.00013772000000","ECCENTRICITY":"0.00022180","TLE_LINE1":"1 48149U 21027BK  22306.85174036 -.00002332  00000-0 -13772-3 0  9990","SITE":"AFETR","DECAY_DATE":null,"PERIOD":"95.593","MEAN_MOTION":"15.06385658","MEAN_MOTION_DOT":"-0.00002332","RA_OF_ASC_NODE":"241.1589","ELEMENT_SET_NO":"999","REV_AT_EPOCH":"8838","FILE":"3643025","REF_FRAME":"TEME","CENTER_NAME":"EARTH","CLASSIFICATION_TYPE":"U","INCLINATION":"53.0530","MEAN_MOTION_DDOT":"0.0000000000000","OBJECT_NAME":"STARLINK-2492","NORAD_CAT_ID":"48149","EPHEMERIS_TYPE":"0","MEAN_ELEMENT_THEORY":"SGP4","RCS_SIZE":"LARGE","PERIAPSIS":"545.721","OBJECT_TYPE":"PAYLOAD","SEMIMAJOR_AXIS":"6925.393","EPOCH":"2022-11-02T20:26:30.367104","MEAN_ANOMALY":"320.6093","OBJECT_ID":"2021-027BK","TIME_SYSTEM":"UTC","LAUNCH_DATE":"2021-04-07","TLE_LINE2":"2 48149  53.0530 241.1589 0002218  39.5057 320.6093 15.06385658 88383","ARG_OF_PERICENTER":"39.5057","APOAPSIS":"548.794","COUNTRY_CODE":"US"},{"MEAN_ANOMALY":"297.7899","OBJECT_ID":"2021-027BL","EPOCH":"2022-11-02T20:31:48.484128","SEMIMAJOR_AXIS":"6925.383","OBJECT_TYPE":"PAYLOAD","APOAPSIS":"548.599","COUNTRY_CODE":"US","ARG_OF_PERICENTER":"62.3288","TLE_LINE2":"2 48150  53.0532 241.1293 0001951  62.3288 297.7899 15.06388895 88397","LAUNCH_DATE":"2021-04-07","TIME_SYSTEM":"UTC","CLASSIFICATION_TYPE":"U","INCLINATION":"53.0532","MEAN_MOTION_DDOT":"0.0000000000000","REF_FRAME":"TEME","CENTER_NAME":"EARTH","RCS_SIZE":"LARGE","PERIAPSIS":"545.896","EPHEMERIS_TYPE":"0","MEAN_ELEMENT_THEORY":"SGP4","NORAD_CAT_ID":"48150","OBJECT_NAME":"STARLINK-2493","REV_AT_EPOCH":"8839","ELEMENT_SET_NO":"999","RA_OF_ASC_NODE":"241.1293","MEAN_MOTION_DOT":"-0.00002822","FILE":"3643025","SITE":"AFETR","ECCENTRICITY":"0.00019510","BSTAR":"-0.00017069000000","TLE_LINE1":"1 48150U 21027BL  22306.85542227 -.00002822  00000-0 -17069-3 0  9990","GP_ID":"216790015","PERIOD":"95.593","MEAN_MOTION":"15.06388895","DECAY_DATE":null},{"TLE_LINE2":"2 48151  53.0553 242.6108 0002354  45.4739 314.6442 15.06393968 87943","ARG_OF_PERICENTER":"45.4739","TIME_SYSTEM":"UTC","LAUNCH_DATE":"2021-04-07","APOAPSIS":"548.862","COUNTRY_CODE":"US","SEMIMAJOR_AXIS":"6925.367","OBJECT_TYPE":"PAYLOAD","MEAN_ANOMALY":"314.6442","OBJECT_ID":"2021-027BM","EPOCH":"2022-11-02T12:39:25.314048","NORAD_CAT_ID":"48151","OBJECT_NAME":"STARLINK-2503","RCS_SIZE":"LARGE","PERIAPSIS":"545.602","EPHEMERIS_TYPE":"0","MEAN_ELEMENT_THEORY":"SGP4","REF_FRAME":"TEME","CENTER_NAME":"EARTH","CLASSIFICATION_TYPE":"U","INCLINATION":"53.0553","MEAN_MOTION_DDOT":"0.0000000000000","FILE":"3642855","MEAN_MOTION_DOT":"0.00000755","RA_OF_ASC_NODE":"242.6108","REV_AT_EPOCH":"8794","ELEMENT_SET_NO":"999","DECAY_DATE":null,"PERIOD":"95.593","MEAN_MOTION":"15.06393968","GP_ID":"216763901","SITE":"AFETR","ECCENTRICITY":"0.00023540","BSTAR":"0.00006960600000","TLE_LINE1":"1 48151U 21027BM  22306.52737632  .00000755  00000-0  69606-4 0  9997"},{"RA_OF_ASC_NODE":"136.2448","MEAN_MOTION_DOT":"-0.00001193","REV_AT_EPOCH":"8449","ELEMENT_SET_NO":"999","FILE":"3643025","GP_ID":"216789025","SITE":"AFETR","TLE_LINE1":"1 48276U 21036A   22306.83377718 -.00001193  00000-0 -61218-4 0  9994","BSTAR":"-0.00006121800000","ECCENTRICITY":"0.00013180","DECAY_DATE":null,"MEAN_MOTION":"15.06384302","PERIOD":"95.593","SEMIMAJOR_AXIS":"6925.397","OBJECT_TYPE":"PAYLOAD","OBJECT_ID":"2021-036A","MEAN_ANOMALY":"268.1382","EPOCH":"2022-11-02T20:00:38.348352","ARG_OF_PERICENTER":"91.9757","TLE_LINE2":"2 48276  53.0548 136.2448 0001318  91.9757 268.1382 15.06384302 84490","LAUNCH_DATE":"2021-04-29","TIME_SYSTEM":"UTC","COUNTRY_CODE":"US","APOAPSIS":"548.174","CENTER_NAME":"EARTH","REF_FRAME":"TEME","MEAN_MOTION_DDOT":"0.0000000000000","INCLINATION":"53.0548","CLASSIFICATION_TYPE":"U","NORAD_CAT_ID":"48276","OBJECT_NAME":"STARLINK-2567","RCS_SIZE":"LARGE","PERIAPSIS":"546.349","MEAN_ELEMENT_THEORY":"SGP4","EPHEMERIS_TYPE":"0"},{"MEAN_ANOMALY":"233.6570","OBJECT_ID":"2021-036B","EPOCH":"2022-11-02T20:02:37.306464","SEMIMAJOR_AXIS":"6925.385","OBJECT_TYPE":"PAYLOAD","APOAPSIS":"548.313","COUNTRY_CODE":"US","TLE_LINE2":"2 48277  53.0557 101.2348 0001535 126.4561 233.6570 15.06388023 84984","ARG_OF_PERICENTER":"126.4561","LAUNCH_DATE":"2021-04-29","TIME_SYSTEM":"UTC","CLASSIFICATION_TYPE":"U","INCLINATION":"53.0557","MEAN_MOTION_DDOT":"0.0000000000000","REF_FRAME":"TEME","CENTER_NAME":"EARTH","RCS_SIZE":"LARGE","PERIAPSIS":"546.187","EPHEMERIS_TYPE":"0","MEAN_ELEMENT_THEORY":"SGP4","NORAD_CAT_ID":"48277","OBJECT_NAME":"STARLINK-2569","REV_AT_EPOCH":"8498","ELEMENT_SET_NO":"999","MEAN_MOTION_DOT":"-0.00000925","RA_OF_ASC_NODE":"101.2348","FILE":"3643025","SITE":"AFETR","ECCENTRICITY":"0.00015350","BSTAR":"-0.00004324700000","TLE_LINE1":"1 48277U 21036B   22306.83515401 -.00000925  00000-0 -43247-4 0  9992","GP_ID":"216789278","PERIOD":"95.593","MEAN_MOTION":"15.06388023","DECAY_DATE":null},{"FILE":"3643025","ELEMENT_SET_NO":"999","REV_AT_EPOCH":"8473","RA_OF_ASC_NODE":"117.3234","MEAN_MOTION_DOT":"0.00002923","MEAN_MOTION":"15.06396993","PERIOD":"95.592","DECAY_DATE":null,"TLE_LINE1":"1 48278U 21036C   22306.60709708  .00002923  00000-0  21506-3 0  9994","ECCENTRICITY":"0.00013550","BSTAR":"0.00021506000000","SITE":"AFETR","GP_ID":"216790028","COUNTRY_CODE":"US","APOAPSIS":"548.161","TIME_SYSTEM":"UTC","LAUNCH_DATE":"2021-04-29","ARG_OF_PERICENTER":"122.5017","TLE_LINE2":"2 48278  53.0557 117.3234 0001355 122.5017 237.6103 15.06396993 84734","EPOCH":"2022-11-02T14:34:13.187712","OBJECT_ID":"2021-036C","MEAN_ANOMALY":"237.6103","OBJECT_TYPE":"PAYLOAD","SEMIMAJOR_AXIS":"6925.358","MEAN_ELEMENT_THEORY":"SGP4","EPHEMERIS_TYPE":"0","RCS_SIZE":"LARGE","PERIAPSIS":"546.284","OBJECT_NAME":"STARLINK-2543","NORAD_CAT_ID":"48278","MEAN_MOTION_DDOT":"0.0000000000000","INCLINATION":"53.0557","CLASSIFICATION_TYPE":"U","CENTER_NAME":"EARTH","REF_FRAME":"TEME"},{"FILE":"3643025","ELEMENT_SET_NO":"999","REV_AT_EPOCH":"8477","MEAN_MOTION_DOT":"0.00001484","RA_OF_ASC_NODE":"116.0910","PERIOD":"95.592","MEAN_MOTION":"15.06401811","DECAY_DATE":null,"BSTAR":"0.00011852000000","ECCENTRICITY":"0.00014840","TLE_LINE1":"1 48279U 21036D   22306.86509435  .00001484  00000-0  11852-3 0  9992","SITE":"AFETR","GP_ID":"216788278","APOAPSIS":"548.236","COUNTRY_CODE":"US","LAUNCH_DATE":"2021-04-29","TIME_SYSTEM":"UTC","ARG_OF_PERICENTER":"111.2834","TLE_LINE2":"2 48279  53.0534 116.0910 0001484 111.2834 248.8314 15.06401811 84770","EPOCH":"2022-11-02T20:45:44.151840","MEAN_ANOMALY":"248.8314","OBJECT_ID":"2021-036D","OBJECT_TYPE":"PAYLOAD","SEMIMAJOR_AXIS":"6925.343","EPHEMERIS_TYPE":"0","MEAN_ELEMENT_THEORY":"SGP4","PERIAPSIS":"546.180","RCS_SIZE":"LARGE","OBJECT_NAME":"STARLINK-2580","NORAD_CAT_ID":"48279","CLASSIFICATION_TYPE":"U","INCLINATION":"53.0534","MEAN_MOTION_DDOT":"0.0000000000000","REF_FRAME":"TEME","CENTER_NAME":"EARTH"}];
